STARLINK-1400
1 45700U 20035AV  26092.91668981  .00185667  00000+0  26694-2 0  9994
2 45700  53.0475 266.2434 0005990 196.7682 308.1927 15.54931782  5900
